NORAD_CAT_ID,OBJECT_NAME,OBJECT_TYPE,EPOCH,MEAN_MOTION,ECCENTRICITY,INCLINATION,RA_OF_ASC_NODE,ARG_OF_PERICENTER,MEAN_ANOMALY,BSTAR,MEAN_MOTION_DOT,MEAN_MOTION_DDOT,TLE_LINE0,TLE_LINE1,TLE_LINE2,SEMIMAJOR_AXIS,PERIOD,APOGEE,PERIGEE,DECAYED
52470.0,STARLINK-3859,PAYLOAD,2024-02-12 10:42:37,15.08832808,0.0001356,53.2164,214.0206,124.3988,235.7132,2.0959e-05,4.6e-07,0.0,0 STARLINK-3859,1 52470U 22049V   24043.44627063  .00000046  00000-0  20959-4 0  9999,2 52470  53.2164 214.0206 0001356 124.3988 235.7132 15.08832808 98245,6917.902,95.438,540.705,538.829,0.0
52470.0,STARLINK-3859,PAYLOAD,2024-02-12 18:39:33,15.08839425,0.0001295,53.2168,212.5397,91.0469,269.0671,8.2482e-05,1.025e-05,0.0,0 STARLINK-3859,1 52470U 22049V   24043.77746733  .00001025  00000-0  82482-4 0  9998,2 52470  53.2168 212.5397 0001295  91.0469 269.0671 15.08839425 98294,6917.882,95.438,540.643,538.851,0.0
52470.0,STARLINK-3859,PAYLOAD,2024-02-13 20:05:43,15.08847896,0.0001286,53.2168,207.781,95.8227,264.2912,8.2392e-05,1.024e-05,0.0,0 STARLINK-3859,1 52470U 22049V   24044.83730446  .00001024  00000-0  82392-4 0  9999,2 52470  53.2168 207.7810 0001286  95.8227 264.2912 15.08847896 98290,6917.856,95.437,540.611,538.832,0.0
52470.0,STARLINK-3859,PAYLOAD,2024-02-14 04:02:39,15.08837603,0.000119,53.2165,206.2905,102.7805,257.332,5.0571e-05,5.17e-06,0.0,0 STARLINK-3859,1 52470U 22049V   24045.16851109  .00000517  00000-0  50571-4 0  9996,2 52470  53.2165 206.2905 0001190 102.7805 257.3320 15.08837603 98505,6917.888,95.438,540.576,538.929,0.0
52470.0,STARLINK-3859,PAYLOAD,2024-02-14 15:10:21,15.08840736,0.0001462,53.2166,204.2135,75.9251,284.1904,7.3765e-05,8.86e-06,0.0,0 STARLINK-3859,1 52470U 22049V   24045.63219115  .00000886  00000-0  73765-4 0  9992,2 52470  53.2166 204.2135 0001462  75.9251 284.1904 15.08840736 98414,6917.878,95.438,540.755,538.732,0.0
52470.0,STARLINK-3859,PAYLOAD,2024-02-14 16:45:44,15.08842991,0.0001303,53.2156,203.9146,83.8848,276.2293,7.5435e-05,9.13e-06,0.0,0 STARLINK-3859,1 52470U 22049V   24045.69842868  .00000913  00000-0  75435-4 0  9992,2 52470  53.2156 203.9146 0001303  83.8848 276.2293 15.08842991 98424,6917.871,95.437,540.638,538.835,0.0
52470.0,STARLINK-3859,PAYLOAD,2024-02-15 10:14:59,15.08840384,0.0001466,53.2173,200.6451,91.3904,268.7256,-5.7369e-06,-3.79e-06,0.0,0 STARLINK-3859,1 52470U 22049V   24046.42707458 -.00000379  00000-0 -57369-5 0  9994,2 52470  53.2173 200.6451 0001466  91.3904 268.7256 15.08840384 98691,6917.879,95.438,540.758,538.73,0.0
52470.0,STARLINK-3859,PAYLOAD,2024-02-15 16:36:31,15.08840381,0.0001461,53.2174,199.4557,90.9966,269.1194,-7.5808e-06,-4.09e-06,0.0,0 STARLINK-3859,1 52470U 22049V   24046.69203452 -.00000409  00000-0 -75808-5 0  9990,2 52470  53.2174 199.4557 0001461  90.9966 269.1194 15.08840381 98572,6917.879,95.438,540.755,538.734,0.0
52470.0,STARLINK-3859,PAYLOAD,2024-02-16 14:51:54,15.0885545,0.0001742,53.2177,195.2922,87.8907,272.2285,-4.7367e-05,-1.042e-05,0.0,0 STARLINK-3859,1 52470U 22049V   24047.61938455 -.00001042  00000-0 -47367-4 0  9993,2 52470  53.2177 195.2922 0001742  87.8907 272.2285 15.08855450 98712,6917.833,95.437,540.903,538.493,0.0
52470.0,STARLINK-3859,PAYLOAD,2024-02-16 19:38:04,15.08852389,0.0001385,53.2175,194.3993,92.8098,267.3053,0.0001125,1.504e-05,0.0,0 STARLINK-3859,1 52470U 22049V   24047.81810216  .00001504  00000-0  11250-3 0  9991,2 52470  53.2175 194.3993 0001385  92.8098 267.3053 15.08852389 98905,6917.843,95.437,540.666,538.749,0.0
52470.0,STARLINK-3859,PAYLOAD,2024-02-17 14:42:43,15.08835318,0.0001812,53.217,190.8259,114.0709,246.0473,2.2791e-05,7.5e-07,0.0,0 STARLINK-3859,1 52470U 22049V   24048.61299831  .00000075  00000-0  22791-4 0  9999,2 52470  53.2170 190.8259 0001812 114.0709 246.0473 15.08835318 98865,6917.895,95.438,541.013,538.506,0.0
52470.0,STARLINK-3859,PAYLOAD,2024-02-17 16:18:06,15.08833661,0.0001357,53.2173,190.5349,97.7735,262.3411,6.749e-05,7.86e-06,0.0,0 STARLINK-3859,1 52470U 22049V   24048.67923836  .00000786  00000-0  67490-4 0  9998,2 52470  53.2173 190.5349 0001357  97.7735 262.3411 15.08833661 99037,6917.9,95.438,540.704,538.826,0.0
52470.0,STARLINK-3859,PAYLOAD,2024-02-18 14:33:30,15.08839812,0.0001612,53.2195,186.3748,106.2321,253.8848,1.221e-05,-9.4e-07,0.0,0 STARLINK-3859,1 52470U 22049V   24049.60659948 -.00000094  00000-0  12210-4 0  9995,2 52470  53.2195 186.3748 0001612 106.2321 253.8848 15.08839812 99019,6917.881,95.438,540.861,538.631,0.0
52470.0,STARLINK-3859,PAYLOAD,2024-02-18 16:08:53,15.0884001,0.0001515,53.2191,186.0795,107.7957,252.3201,5.0775e-05,5.2e-06,0.0,0 STARLINK-3859,1 52470U 22049V   24049.67283860  .00000520  00000-0  50775-4 0  9999,2 52470  53.2191 186.0795 0001515 107.7957 252.3201 15.08840010 99027,6917.88,95.438,540.793,538.697,0.0
52470.0,STARLINK-3859,PAYLOAD,2024-02-19 01:41:12,15.08841631,0.0001714,53.2184,184.2952,123.7776,236.338,-6.7351e-05,-1.36e-05,0.0,0 STARLINK-3859,1 52470U 22049V   24050.07027997 -.00001360  00000-0 -67351-4 0  9995,2 52470  53.2184 184.2952 0001714 123.7776 236.3380 15.08841631 99246,6917.875,95.437,540.926,538.555,0.0
52470.0,STARLINK-3859,PAYLOAD,2024-02-19 09:38:08,15.08832644,0.0001362,53.2174,182.8061,104.758,255.3563,9.038e-05,1.151e-05,0.0,0 STARLINK-3859,1 52470U 22049V   24050.40148517  .00001151  00000-0  90380-4 0  9998,2 52470  53.2174 182.8061 0001362 104.7580 255.3563 15.08832644 99294,6917.903,95.438,540.71,538.826,0.0
52470.0,STARLINK-3859,PAYLOAD,2024-02-19 14:24:17,15.08836883,0.0001412,53.2176,181.9149,107.0731,253.0415,0.00012372,1.681e-05,0.0,0 STARLINK-3859,1 52470U 22049V   24050.60020236  .00001681  00000-0  12372-3 0  9999,2 52470  53.2176 181.9149 0001412 107.0731 253.0415 15.08836883 99169,6917.89,95.438,540.732,538.778,0.0
52470.0,STARLINK-3859,PAYLOAD,2024-02-19 15:59:40,15.08837653,0.0001417,53.2176,181.6175,107.9168,252.1979,0.00012733,1.739e-05,0.0,0 STARLINK-3859,1 52470U 22049V   24050.66644189  .00001739  00000-0  12733-3 0  9999,2 52470  53.2176 181.6175 0001417 107.9168 252.1979 15.08837653 99175,6917.888,95.438,540.733,538.772,0.0
52470.0,STARLINK-3859,PAYLOAD,2024-02-20 01:31:59,15.08838809,0.000138,53.2184,179.8326,99.1814,260.9334,0.00012981,1.779e-05,0.0,0 STARLINK-3859,1 52470U 22049V   24051.06388157  .00001779  00000-0  12981-3 0  9993,2 52470  53.2184 179.8326 0001380  99.1814 260.9334 15.08838809 99390,6917.884,95.438,540.704,538.794,0.0
52470.0,STARLINK-3859,PAYLOAD,2024-02-20 14:15:05,15.08836111,0.0001469,53.2184,177.4535,96.6253,263.4907,5.5547e-05,5.96e-06,0.0,0 STARLINK-3859,1 52470U 22049V   24051.59380793  .00000596  00000-0  55547-4 0  9991,2 52470  53.2184 177.4535 0001469  96.6253 263.4907 15.08836111 99313,6917.892,95.438,540.774,538.741,0.0
52470.0,STARLINK-3859,PAYLOAD,2024-02-20 15:50:27,15.08839272,0.0001394,53.2176,177.1564,90.1306,269.9846,7.8728e-05,9.65e-06,0.0,0 STARLINK-3859,1 52470U 22049V   24051.66004500  .00000965  00000-0  78728-4 0  9994,2 52470  53.2176 177.1564 0001394  90.1306 269.9846 15.08839272 99323,6917.883,95.438,540.712,538.783,0.0
52470.0,STARLINK-3859,PAYLOAD,2024-02-21 14:05:51,15.08847584,0.0001337,53.2175,172.9923,88.4232,271.6913,9.0717e-05,1.156e-05,0.0,0 STARLINK-3859,1 52470U 22049V   24052.58739891  .00001156  00000-0  90717-4 0  9999,2 52470  53.2175 172.9923 0001337  88.4232 271.6913 15.08847584 99464,6917.857,95.437,540.647,538.797,0.0
52470.0,STARLINK-3859,PAYLOAD,2024-02-21 15:41:14,15.08849033,0.0001351,53.2175,172.6952,90.2025,269.9121,0.00012183,1.652e-05,0.0,0 STARLINK-3859,1 52470U 22049V   24052.65363720  .00001652  00000-0  12183-3 0  9992,2 52470  53.2175 172.6952 0001351  90.2025 269.9121 15.08849033 99631,6917.853,95.437,540.652,538.783,0.0
52470.0,STARLINK-3859,PAYLOAD,2024-02-22 12:21:15,15.0884078,0.0001446,53.2186,168.8296,83.5778,276.5378,9.4864e-05,1.222e-05,0.0,0 STARLINK-3859,1 52470U 22049V   24053.51476268  .00001222  00000-0  94864-4 0  9990,2 52470  53.2186 168.8296 0001446  83.5778 276.5378 15.08840780 99768,6917.878,95.438,540.743,538.743,0.0
52470.0,STARLINK-3859,PAYLOAD,2024-02-22 13:56:38,15.08844855,0.0001333,53.217,168.5314,90.9963,269.1182,7.0309e-05,8.31e-06,0.0,0 STARLINK-3859,1 52470U 22049V   24053.58099994  .00000831  00000-0  70309-4 0  9997,2 52470  53.2170 168.5314 0001333  90.9963 269.1182 15.08844855 99614,6917.866,95.437,540.653,538.808,0.0
52470.0,STARLINK-3859,PAYLOAD,2024-02-23 13:47:24,15.08853707,0.0001371,53.2177,164.0706,82.1623,277.9525,3.3056e-05,2.38e-06,0.0,0 STARLINK-3859,1 52470U 22049V   24054.57459347  .00000238  00000-0  33056-4 0  9998,2 52470  53.2177 164.0706 0001371  82.1623 277.9525 15.08853707 99765,6917.838,95.437,540.652,538.755,0.0
52470.0,STARLINK-3859,PAYLOAD,2024-02-24 12:02:49,15.08835863,0.0001505,53.2188,159.9098,89.2041,270.9124,2.0837e-05,4.4e-07,0.0,0 STARLINK-3859,1 52470U 22049V   24055.50196561  .00000044  00000-0  20837-4 0  9996,2 52470  53.2188 159.9098 0001505  89.2041 270.9124 15.08835863100062,6917.893,95.438,540.799,538.717,0.0
52470.0,STARLINK-3859,PAYLOAD,2024-02-24 13:38:12,15.08839493,0.0001507,53.2187,159.6096,93.331,266.7855,1.6482e-06,-2.62e-06,0.0,0 STARLINK-3859,1 52470U 22049V   24055.56820351 -.00000262  00000-0  16482-5 0  9998,2 52470  53.2187 159.6096 0001507  93.3310 266.7855 15.08839493 99911,6917.882,95.438,540.789,538.704,0.0
52470.0,STARLINK-3859,PAYLOAD,2024-02-24 16:48:58,15.08844016,0.0001549,53.218,159.0113,95.5796,264.5372,7.4416e-06,-1.7e-06,0.0,0 STARLINK-3859,1 52470U 22049V   24055.70068047 -.00000170  00000-0  74416-5 0  9999,2 52470  53.2180 159.0113 0001549  95.5796 264.5372 15.08844016100095,6917.868,95.437,540.805,538.662,0.0
52470.0,STARLINK-3859,PAYLOAD,2024-02-25 13:28:59,15.08849066,0.0001402,53.2174,155.1493,82.3434,277.7717,6.2712e-05,7.1e-06,0.0,0 STARLINK-3859,1 52470U 22049V   24056.56179431  .00000710  00000-0  62712-4 0  9998,2 52470  53.2174 155.1493 0001402  82.3434 277.7717 15.08849066100063,6917.853,95.437,540.688,538.748,0.0
